[{"OBJECT_NAME":"ONEWEB-0264","OBJECT_ID":"2021-060R","EPOCH":"2026-02-28T06:44:07.926720","MEAN_MOTION":13.16595749,"ECCENTRICITY":0.00013826,"INCLINATION":87.8998,"RA_OF_ASC_NODE":250.4527,"ARG_OF_PERICENTER":99.5644,"MEAN_ANOMALY":260.5643,"EPHEMERIS_TYPE":0,"CLASSIFICATION_TYPE":"U","NORAD_CAT_ID":48982,"ELEMENT_SET_NO":999,"REV_AT_EPOCH":22526,"BSTAR":0.00021777975,"MEAN_MOTION_DOT":9.6e-7,"MEAN_MOTION_DDOT":0},{"OBJECT_NAME":"ONEWEB-0266","OBJECT_ID":"2021-060T","EPOCH":"2026-02-28T01:46:36.369120","MEAN_MOTION":13.1659581,"ECCENTRICITY":0.0001783,"INCLINATION":87.9002,"RA_OF_ASC_NODE":250.4832,"ARG_OF_PERICENTER":92.1863,"MEAN_ANOMALY":267.9472,"EPHEMERIS_TYPE":0,"CLASSIFICATION_TYPE":"U","NORAD_CAT_ID":48984,"ELEMENT_SET_NO":999,"REV_AT_EPOCH":22522,"BSTAR":1.4777512e-5,"MEAN_MOTION_DOT":1.9e-7,"MEAN_MOTION_DDOT":0},{"OBJECT_NAME":"ONEWEB-0267","OBJECT_ID":"2021-060U","EPOCH":"2026-02-28T05:41:26.219328","MEAN_MOTION":13.16592637,"ECCENTRICITY":0.00015756,"INCLINATION":87.8998,"RA_OF_ASC_NODE":250.4474,"ARG_OF_PERICENTER":101.7168,"MEAN_ANOMALY":258.414,"EPHEMERIS_TYPE":0,"CLASSIFICATION_TYPE":"U","NORAD_CAT_ID":48985,"ELEMENT_SET_NO":999,"REV_AT_EPOCH":22525,"BSTAR":-5.6269561e-5,"MEAN_MOTION_DOT":-9.0e-8,"MEAN_MOTION_DDOT":0},{"OBJECT_NAME":"ONEWEB-0268","OBJECT_ID":"2021-060V","EPOCH":"2026-02-28T06:45:17.282592","MEAN_MOTION":13.16592563,"ECCENTRICITY":0.00015253,"INCLINATION":87.9001,"RA_OF_ASC_NODE":250.4482,"ARG_OF_PERICENTER":93.3055,"MEAN_ANOMALY":266.8251,"EPHEMERIS_TYPE":0,"CLASSIFICATION_TYPE":"U","NORAD_CAT_ID":48986,"ELEMENT_SET_NO":999,"REV_AT_EPOCH":22552,"BSTAR":0.00030319171,"MEAN_MOTION_DOT":1.29e-6,"MEAN_MOTION_DDOT":0},{"OBJECT_NAME":"ONEWEB-0269","OBJECT_ID":"2021-060W","EPOCH":"2026-02-28T06:17:55.482144","MEAN_MOTION":13.16592433,"ECCENTRICITY":0.00015092,"INCLINATION":87.8992,"RA_OF_ASC_NODE":250.4667,"ARG_OF_PERICENTER":87.1806,"MEAN_ANOMALY":272.9498,"EPHEMERIS_TYPE":0,"CLASSIFICATION_TYPE":"U","NORAD_CAT_ID":48987,"ELEMENT_SET_NO":999,"REV_AT_EPOCH":22529,"BSTAR":-0.00012482525,"MEAN_MOTION_DOT":-3.5e-7,"MEAN_MOTION_DDOT":0},{"OBJECT_NAME":"ONEWEB-0270","OBJECT_ID":"2021-060X","EPOCH":"2026-02-28T06:43:00.537312","MEAN_MOTION":13.16592889,"ECCENTRICITY":0.00018267,"INCLINATION":87.9001,"RA_OF_ASC_NODE":250.4502,"ARG_OF_PERICENTER":105.6866,"MEAN_ANOMALY":254.4467,"EPHEMERIS_TYPE":0,"CLASSIFICATION_TYPE":"U","NORAD_CAT_ID":48988,"ELEMENT_SET_NO":999,"REV_AT_EPOCH":22533,"BSTAR":0.00016811388,"MEAN_MOTION_DOT":7.7e-7,"MEAN_MOTION_DDOT":0},{"OBJECT_NAME":"ONEWEB-0271","OBJECT_ID":"2021-060Y","EPOCH":"2026-02-28T06:24:46.823040","MEAN_MOTION":13.16595519,"ECCENTRICITY":0.00016259,"INCLINATION":87.8997,"RA_OF_ASC_NODE":250.4433,"ARG_OF_PERICENTER":103.7548,"MEAN_ANOMALY":256.3764,"EPHEMERIS_TYPE":0,"CLASSIFICATION_TYPE":"U","NORAD_CAT_ID":48989,"ELEMENT_SET_NO":999,"REV_AT_EPOCH":22533,"BSTAR":5.9041434e-5,"MEAN_MOTION_DOT":3.5e-7,"MEAN_MOTION_DDOT":0},{"OBJECT_NAME":"ONEWEB-0272","OBJECT_ID":"2021-060Z","EPOCH":"2026-02-28T01:28:22.597824","MEAN_MOTION":13.16595271,"ECCENTRICITY":0.00014056,"INCLINATION":87.8999,"RA_OF_ASC_NODE":250.4963,"ARG_OF_PERICENTER":100.2588,"MEAN_ANOMALY":259.8701,"EPHEMERIS_TYPE":0,"CLASSIFICATION_TYPE":"U","NORAD_CAT_ID":48990,"ELEMENT_SET_NO":999,"REV_AT_EPOCH":22525,"BSTAR":2.4627334e-5,"MEAN_MOTION_DOT":2.2e-7,"MEAN_MOTION_DDOT":0},{"OBJECT_NAME":"ONEWEB-0273","OBJECT_ID":"2021-060AA","EPOCH":"2026-02-28T05:39:09.957024","MEAN_MOTION":13.16593291,"ECCENTRICITY":0.00016545,"INCLINATION":87.9001,"RA_OF_ASC_NODE":250.4594,"ARG_OF_PERICENTER":99.2225,"MEAN_ANOMALY":260.9093,"EPHEMERIS_TYPE":0,"CLASSIFICATION_TYPE":"U","NORAD_CAT_ID":48991,"ELEMENT_SET_NO":999,"REV_AT_EPOCH":22525,"BSTAR":8.0198716e-5,"MEAN_MOTION_DOT":4.4e-7,"MEAN_MOTION_DDOT":0},{"OBJECT_NAME":"ONEWEB-0274","OBJECT_ID":"2021-060AB","EPOCH":"2026-02-27T22:57:54.139104","MEAN_MOTION":13.16592617,"ECCENTRICITY":0.0001265,"INCLINATION":87.8984,"RA_OF_ASC_NODE":250.5292,"ARG_OF_PERICENTER":93.8111,"MEAN_ANOMALY":266.3164,"EPHEMERIS_TYPE":0,"CLASSIFICATION_TYPE":"U","NORAD_CAT_ID":48992,"ELEMENT_SET_NO":999,"REV_AT_EPOCH":22525,"BSTAR":0.00020301,"MEAN_MOTION_DOT":9.0e-7,"MEAN_MOTION_DDOT":0},{"OBJECT_NAME":"ONEWEB-0275","OBJECT_ID":"2021-060AC","EPOCH":"2026-02-28T05:59:40.945344","MEAN_MOTION":13.16593035,"ECCENTRICITY":0.00015329,"INCLINATION":87.8999,"RA_OF_ASC_NODE":250.4491,"ARG_OF_PERICENTER":96.5624,"MEAN_ANOMALY":263.5682,"EPHEMERIS_TYPE":0,"CLASSIFICATION_TYPE":"U","NORAD_CAT_ID":48993,"ELEMENT_SET_NO":999,"REV_AT_EPOCH":22522,"BSTAR":9.47632e-7,"MEAN_MOTION_DOT":1.3e-7,"MEAN_MOTION_DDOT":0},{"OBJECT_NAME":"ONEWEB-0276","OBJECT_ID":"2021-060AD","EPOCH":"2026-02-28T06:47:34.183392","MEAN_MOTION":13.16593093,"ECCENTRICITY":0.00017842,"INCLINATION":87.9001,"RA_OF_ASC_NODE":250.4427,"ARG_OF_PERICENTER":95.7945,"MEAN_ANOMALY":264.3389,"EPHEMERIS_TYPE":0,"CLASSIFICATION_TYPE":"U","NORAD_CAT_ID":48994,"ELEMENT_SET_NO":999,"REV_AT_EPOCH":22524,"BSTAR":0.00023548941,"MEAN_MOTION_DOT":1.03e-6,"MEAN_MOTION_DDOT":0},{"OBJECT_NAME":"ONEWEB-0277","OBJECT_ID":"2021-060AE","EPOCH":"2026-02-28T05:16:18.500448","MEAN_MOTION":13.16597499,"ECCENTRICITY":0.00016464,"INCLINATION":87.8991,"RA_OF_ASC_NODE":250.4717,"ARG_OF_PERICENTER":98.8975,"MEAN_ANOMALY":261.2342,"EPHEMERIS_TYPE":0,"CLASSIFICATION_TYPE":"U","NORAD_CAT_ID":48995,"ELEMENT_SET_NO":999,"REV_AT_EPOCH":22522,"BSTAR":6.9689118e-5,"MEAN_MOTION_DOT":4.0e-7,"MEAN_MOTION_DDOT":0},{"OBJECT_NAME":"ONEWEB-0278","OBJECT_ID":"2021-060AF","EPOCH":"2026-02-28T01:23:48.842880","MEAN_MOTION":13.16592836,"ECCENTRICITY":0.00017786,"INCLINATION":87.9004,"RA_OF_ASC_NODE":250.4841,"ARG_OF_PERICENTER":88.7754,"MEAN_ANOMALY":271.358,"EPHEMERIS_TYPE":0,"CLASSIFICATION_TYPE":"U","NORAD_CAT_ID":48996,"ELEMENT_SET_NO":999,"REV_AT_EPOCH":22533,"BSTAR":0.00022353558,"MEAN_MOTION_DOT":9.8e-7,"MEAN_MOTION_DDOT":0},{"OBJECT_NAME":"ONEWEB-0279","OBJECT_ID":"2021-060AG","EPOCH":"2026-02-28T01:35:12.698880","MEAN_MOTION":13.16592724,"ECCENTRICITY":0.0001485,"INCLINATION":87.9004,"RA_OF_ASC_NODE":250.4819,"ARG_OF_PERICENTER":103.6181,"MEAN_ANOMALY":256.5115,"EPHEMERIS_TYPE":0,"CLASSIFICATION_TYPE":"U","NORAD_CAT_ID":48997,"ELEMENT_SET_NO":999,"REV_AT_EPOCH":22526,"BSTAR":2.6296987e-5,"MEAN_MOTION_DOT":2.3e-7,"MEAN_MOTION_DDOT":0},{"OBJECT_NAME":"ONEWEB-0280","OBJECT_ID":"2021-060AH","EPOCH":"2026-02-28T05:35:45.733344","MEAN_MOTION":13.16593836,"ECCENTRICITY":0.00019763,"INCLINATION":87.9002,"RA_OF_ASC_NODE":250.4535,"ARG_OF_PERICENTER":97.6965,"MEAN_ANOMALY":262.439,"EPHEMERIS_TYPE":0,"CLASSIFICATION_TYPE":"U","NORAD_CAT_ID":48998,"ELEMENT_SET_NO":999,"REV_AT_EPOCH":22522,"BSTAR":5.5334751e-5,"MEAN_MOTION_DOT":3.4e-7,"MEAN_MOTION_DDOT":0},{"OBJECT_NAME":"ONEWEB-0281","OBJECT_ID":"2021-060AJ","EPOCH":"2026-02-28T05:43:43.471776","MEAN_MOTION":13.16593142,"ECCENTRICITY":0.00015073,"INCLINATION":87.8998,"RA_OF_ASC_NODE":250.4469,"ARG_OF_PERICENTER":92.1977,"MEAN_ANOMALY":267.9327,"EPHEMERIS_TYPE":0,"CLASSIFICATION_TYPE":"U","NORAD_CAT_ID":48999,"ELEMENT_SET_NO":999,"REV_AT_EPOCH":22529,"BSTAR":-8.568151e-6,"MEAN_MOTION_DOT":1.0e-7,"MEAN_MOTION_DDOT":0}]
