ONEWEB-0264             
1 48982U 21060R   26059.28064730  .00000096  00000+0  21778-3 0  9994
2 48982  87.8998 250.4527 0001382  99.5644 260.5643 13.16595749225261
ONEWEB-0266             
1 48984U 21060T   26059.07403205  .00000019  00000+0  14778-4 0  9995
2 48984  87.9002 250.4832 0001783  92.1863 267.9472 13.16595810225222
ONEWEB-0267             
1 48985U 21060U   26059.23710902 -.00000009  00000+0 -56270-4 0  9993
2 48985  87.8998 250.4474 0001575 101.7168 258.4140 13.16592637225256
ONEWEB-0268             
1 48986U 21060V   26059.28145003  .00000129  00000+0  30319-3 0  9999
2 48986  87.9001 250.4482 0001525  93.3055 266.8251 13.16592563225522
ONEWEB-0269             
1 48987U 21060W   26059.26244771 -.00000035  00000+0 -12483-3 0  9990
2 48987  87.8992 250.4667 0001509  87.1806 272.9498 13.16592433225294
ONEWEB-0270             
1 48988U 21060X   26059.27986733  .00000077  00000+0  16811-3 0  9996
2 48988  87.9001 250.4502 0001826 105.6866 254.4467 13.16592889225330
ONEWEB-0271             
1 48989U 21060Y   26059.26720860  .00000035  00000+0  59041-4 0  9990
2 48989  87.8997 250.4433 0001625 103.7548 256.3764 13.16595519225334
ONEWEB-0272             
1 48990U 21060Z   26059.06137266  .00000022  00000+0  24627-4 0  9990
2 48990  87.8999 250.4963 0001405 100.2588 259.8701 13.16595271225253
ONEWEB-0273             
1 48991U 21060AA  26059.23553191  .00000044  00000+0  80199-4 0  9999
2 48991  87.9001 250.4594 0001654  99.2225 260.9093 13.16593291225257
ONEWEB-0274             
1 48992U 21060AB  26058.95687661  .00000090  00000+0  20301-3 0  9997
2 48992  87.8984 250.5292 0001265  93.8111 266.3164 13.16592617225255
ONEWEB-0275             
1 48993U 21060AC  26059.24977946  .00000013  00000+0  94763-6 0  9990
2 48993  87.8999 250.4491 0001532  96.5624 263.5682 13.16593035225224
ONEWEB-0276             
1 48994U 21060AD  26059.28303453  .00000103  00000+0  23549-3 0  9992
2 48994  87.9001 250.4427 0001784  95.7945 264.3389 13.16593093225244
ONEWEB-0277             
1 48995U 21060AE  26059.21965857  .00000040  00000+0  69689-4 0  9994
2 48995  87.8991 250.4717 0001646  98.8975 261.2342 13.16597499225225
ONEWEB-0278             
1 48996U 21060AF  26059.05820420  .00000098  00000+0  22354-3 0  9993
2 48996  87.9004 250.4841 0001778  88.7754 271.3580 13.16592836225337
ONEWEB-0279             
1 48997U 21060AG  26059.06611920  .00000023  00000+0  26297-4 0  9997
2 48997  87.9004 250.4819 0001485 103.6181 256.5115 13.16592724225266
ONEWEB-0280             
1 48998U 21060AH  26059.23316821  .00000034  00000+0  55335-4 0  9996
2 48998  87.9002 250.4535 0001976  97.6965 262.4390 13.16593836225229
ONEWEB-0281             
1 48999U 21060AJ  26059.23869759  .00000010  00000+0 -85682-5 0  9994
2 48999  87.8998 250.4469 0001507  92.1977 267.9327 13.16593142225299
